IRIDIUM 36 [-]          
1 24967U 97056C   23297.45067406  .00000792  00000+0  26352-3 0  9998
2 24967  86.3960  65.6232 0002182  96.8443 263.3003 14.36467792365801
IRIDIUM 39 [-]          
1 25042U 97069D   23297.48472060  .00001107  00000+0  29550-3 0  9990
2 25042  86.3869 108.8400 0019427 148.3158 211.9219 14.47435426361879
IRIDIUM 38 [-]          
1 25043U 97069E   23297.46356502  .00000614  00000+0  20095-3 0  9998
2 25043  86.3927 126.1329 0000786   5.3926 354.7280 14.36927067359518
IRIDIUM 42 [-]          
1 25077U 97077A   23297.51554253  .00000529  00000+0  17820-3 0  9990
2 25077  86.3940 131.5475 0001481  80.6606 279.4758 14.35239592354860
IRIDIUM 44 [-]          
1 25078U 97077B   23297.47771270  .00000695  00000+0  21883-3 0  9994
2 25078  86.3911 115.1029 0002111 141.9801 218.1546 14.39031456357132
IRIDIUM 45 [-]          
1 25104U 97082A   23297.51318896  .00009829  00000+0  62820-3 0  9990
2 25104  86.3770 332.7441 0179094  16.7657 343.9386 14.96095300361396
IRIDIUM 24 [-]          
1 25105U 97082B   23297.50924059  .00000639  00000+0  19370-3 0  9996
2 25105  86.3918 335.0948 0009318 262.1935  97.8207 14.40791023356548
IRIDIUM 51 [-]          
1 25262U 98018A   23297.50613667  .00009635  00000+0  53371-3 0  9994
2 25262  86.3956 343.2493 0162582 330.8685  28.3548 15.02978376355776
